APSTAR 9                
1 40982U 15059A   22029.46004154 -.00000268  00000+0  00000+0 0  9997
2 40982   0.0368 252.9224 0001053  40.2774 143.0744  1.00269619 23115
TURKSAT 4B              
1 40984U 15060A   22029.51341911  .00000113  00000+0  00000+0 0  9990
2 40984   0.0127  21.2160 0001568 286.9237  55.3677  1.00270872 23067
TIANHUI 1-03            
1 40988U 15061A   22029.83884737  .00002687  00000+0  11586-3 0  9991
2 40988  97.3796 152.4994 0008953 176.5077 337.7122 15.23386113348232
NAVSTAR 75 (USA 265)    
1 41019U 15062A   22029.32970098 -.00000033  00000+0  00000+0 0  9997
2 41019  55.7005  93.2747 0076051 216.6582 142.8756  2.00562914 45742
CHINASAT 2C (ZX 2C)     
1 41021U 15063A   22029.02168260 -.00000323  00000+0  00000+0 0  9990
2 41021   0.0503 262.5987 0001831 107.2169 229.6391  1.00269705 22967
YAOGAN 28               
1 41026U 15064A   22029.87507477  .00002982  00000+0  12796-3 0  9997
2 41026  97.5307 171.8901 0002094 136.0310  22.9559 15.23517985347138
GSAT-15                 
1 41028U 15065A   22029.74910509 -.00000260  00000+0  00000+0 0  9999
2 41028   0.0495 264.1910 0000679   4.9226 222.9979  1.00269349 22821
BADR-7 (ARABSAT-6B)     
1 41029U 15065B   22029.50862212  .00000143  00000+0  00000+0 0  9990
2 41029   0.0443 237.1408 0004035  13.7634  86.8794  1.00271880 22722
COSMOS 2510             
1 41032U 15066A   22028.14676864  .00001222  00000+0  00000+0 0  9999
2 41032  62.8045 183.8331 6746569 270.8739  18.6969  2.00699481 45392
LAOSAT 1                
1 41034U 15067A   22029.56021637 -.00000345  00000+0  00000+0 0  9997
2 41034   0.0349 205.0447 0001859  71.4863 182.4166  1.00272459 22826
TELSTAR 12V             
1 41036U 15068A   22029.42864297 -.00000121  00000+0  00000+0 0  9994
2 41036   0.0223  77.1661 0001744 246.3848 304.4108  1.00269954 22585
YAOGAN 29               
1 41038U 15069A   22029.81513055  .00000135  00000+0  24573-4 0  9993
2 41038  98.0520  29.4280 0002059 106.0114 254.1325 14.80567927333770
CHINASAT 1C (ZX 1C)     
1 41103U 15073A   22029.87850537 -.00000156  00000+0  00000+0 0  9994
2 41103   3.0461  86.7855 0000618 139.6750 300.2754  1.00271035 22622
ELEKTRO-L 2             
1 41105U 15074A   22029.42881741 -.00000119  00000+0  00000+0 0  9998
2 41105   2.6397  89.7824 0001382 153.5953  25.1837  1.00271325 22475
COSMOS 2513             
1 41121U 15075A   22029.51943718 -.00000140  00000+0  00000+0 0  9994
2 41121   0.0530 114.3376 0002184 170.9017 110.7242  1.00272281 22480
VELOX-CI                
1 41166U 15077A   22029.56628703  .00002371  00000+0  99398-4 0  9994
2 41166  14.9828 123.5501 0011110 288.5640  71.3474 15.10797919338263
KENT RIDGE 1            
1 41167U 15077B   22029.81682664  .00001627  00000+0  58354-4 0  9999
2 41167  14.9858 139.0178 0011147 260.7377 201.7204 15.09600360338269
ATHENOXAT 1             
1 41168U 15077C   22029.68906350  .00006856  00000+0  29715-3 0  9993
2 41168  14.9857  35.9351 0010399  91.1074  54.5681 15.17426528339179
TELEOS 1                
1 41169U 15077D   22029.62306750  .00002786  00000+0  12032-3 0  9998
2 41169  14.9818 113.9243 0009736 299.9338  60.0030 15.11714979338474
GALASSIA                
1 41170U 15077E   22029.62619999  .00006963  00000+0  30205-3 0  9995
2 41170  14.9902  26.7836 0011546 123.4075 236.7352 15.17438830339240
VELOX-II                
1 41171U 15077F   22029.36731124  .00005271  00000+0  24737-3 0  9996
2 41171  14.9919  95.3438 0008282 331.3434  28.6431 15.13642069338490
DAMPE                   
1 41173U 15078A   22029.88816494  .00000534  00000+0  24825-4 0  9996
2 41173  97.3671  22.8845 0012973 335.6872  83.3161 15.24168677340473
GSAT0209 (GALILEO 12)   
1 41174U 15079A   22029.42732014 -.00000010  00000+0  00000+0 0  9997
2 41174  55.1161 145.2248 0002702 313.2525  46.6852  1.70473480 37506
GSAT0208 (GALILEO 11)   
1 41175U 15079B   22028.47380043 -.00000003  00000+0  00000+0 0  9995
2 41175  55.1141 145.2498 0001881 314.8765  45.0714  1.70473491 38066
ORBCOMM FM114           
1 41179U 15081A   22029.54132291  .00000180  00000+0  79707-4 0  9991
2 41179  47.0047 339.6099 0001505  78.7202 281.3851 14.54972464324522
ORBCOMM FM110           
1 41182U 15081D   22029.24396292  .00000148  00000+0  72283-4 0  9991
2 41182  47.0036 340.5057 0002275 287.2616  72.8019 14.54979813324355
ORBCOMM FM118           
1 41183U 15081E   22029.15328818  .00000123  00000+0  66420-4 0  9990
2 41183  47.0055 341.0890 0002304 287.2509  72.8122 14.54992575324447
ORBCOMM FM112           
1 41184U 15081F   22029.47793458  .00000042  00000+0  47894-4 0  9996
2 41184  46.9980 248.4776 0001647 153.5982 206.4986 14.54975074325714
ORBCOMM FM113           
1 41185U 15081G   22029.59163730  .00000048  00000+0  49281-4 0  9992
2 41185  47.0003 248.0501 0001480 180.2533 179.8351 14.54954003325717
ORBCOMM FM115           
1 41186U 15081H   22029.56452460  .00000122  00000+0  62062-4 0  9996
2 41186  46.9995 130.0477 0001574 210.8907 149.1886 14.58804015327331
ORBCOMM FM108           
1 41187U 15081J   22029.75525887 -.00000005  00000+0  36936-4 0  9994
2 41187  47.0044 158.2537 0001226  56.7831 303.3171 14.54948299326974
ORBCOMM FM117           
1 41188U 15081K   22029.37847955  .00000020  00000+0  42749-4 0  9991
2 41188  47.0003 159.2102 0002027  81.1639 278.9475 14.54972039326879
ORBCOMM FM116           
1 41189U 15081L   22029.56905460  .00000068  00000+0  53949-4 0  9995
2 41189  47.0007 248.0150 0001636 162.6491 197.4450 14.54956336325712
EXPRESS-AMU1            
1 41191U 15082A   22029.29528626  .00000155  00000+0  00000+0 0  9996
2 41191   0.0141  78.2588 0002267 248.5047 304.1099  1.00271674 22232
GAOFEN 4                
1 41194U 15083A   22029.55465921 -.00000337  00000+0  00000+0 0  9990
2 41194   0.0853 107.9630 0002335  70.1600 255.9743  1.00274542 22475
BELINTERSAT-1           
1 41238U 16001A   22029.51368076  .00000105  00000+0  00000+0 0  9991
2 41238   0.0330 255.6435 0001641 311.1855 158.3027  1.00270458 22201
JASON-3                 
1 41240U 16002A   22029.54351176 -.00000035  00000+0  11349-3 0  9996
2 41240  66.0384 217.4191 0007539 272.9995  87.0157 12.80931058282122
IRNSS-1E                
1 41241U 16003A   22028.59260981 -.00000320  00000+0  00000+0 0  9990
2 41241  29.6667  86.7983 0021137 189.4589 176.6829  1.00269489 22034
EUTELSAT 9B             
1 41310U 16005A   22029.36165935  .00000060  00000+0  00000+0 0  9998
2 41310   0.0257  50.7749 0004976 234.4912 342.4884  1.00269387 22078
NAVSTAR 76 (USA 266)    
1 41328U 16007A   22029.42602348 -.00000008  00000+0  00000+0 0  9993
2 41328  54.8854 152.9931 0056579 226.1588 133.3377  2.00552192 43750
COSMOS 2514 [GLONASS-M] 
1 41330U 16008A   22029.84348766 -.00000056  00000+0  00000+0 0  9997
2 41330  65.5852   7.3776 0010769 226.5974 339.6945  2.13102728 46535
KMS 4                   
1 41332U 16009A   22029.74887063  .00010356  00000+0  27287-3 0  9990
2 41332  97.2613 106.2897 0021289 106.3892 253.9696 15.38469914334489
SENTINEL-3A             
1 41335U 16011A   22029.76451367  .00000028  00000+0  29495-4 0  9991
2 41335  98.6269  99.0575 0001120  96.7507 263.3801 14.26736547309999
HORYU-4                 
1 41340U 16012D   22029.75468566  .00002054  00000+0  14481-3 0  9995
2 41340  31.0037 164.2229 0013605 261.8661  98.0432 15.02383138326842
SES-9                   
1 41380U 16013A   22029.45323852 -.00000347  00000+0  00000+0 0  9997
2 41380   0.0541 268.6388 0001052 128.2743   3.2067  1.00270680 21391
EUTELSAT 65 WEST A      
1 41382U 16014A   22029.51332344 -.00000278  00000+0  00000+0 0  9996
2 41382   0.0486  22.0461 0001820 295.4398 290.8246  1.00269471 21503
IRNSS-1F                
1 41384U 16015A   22029.50993038  .00000156  00000+0  00000+0 0  9995
2 41384   2.0412 167.9361 0021296 184.6727 352.0746  1.00275031 21626
RESURS P3               
1 41386U 16016A   22029.80148061  .00002229  00000+0  70358-4 0  9990
2 41386  97.2113 116.0359 0004403 146.7304   2.5227 15.33872907329049
COSMOS 2515             
1 41394U 16020A   22029.58725515 -.00000065  00000+0 -51042-7 0  9994
2 41394  97.8567 344.9085 0033700 299.9706  59.8164 14.99178872320131
BEIDOU IGSO-6           
1 41434U 16021A   22029.87997027 -.00000139  00000+0  00000+0 0  9992
2 41434  57.8952  54.2725 0044957 217.9343 269.1970  1.00268924 21444
SENTINEL-1B             
1 41456U 16025A   22029.83569341 -.00000027  00000+0  39758-5 0  9994
2 41456  98.1815  39.1893 0001342  83.8323 276.3023 14.59199340306977
E-ST@R-II               
1 41459U 16025D   22029.68424054  .00004804  00000+0  22619-3 0  9993
2 41459  98.1680 185.0951 0154717  19.8445 340.8712 15.10034541316539
AAUSAT 4                
1 41460U 16025E   22029.65846026  .00006809  00000+0  29770-3 0  9991
2 41460  98.1628 190.2035 0139518 359.6398   0.4701 15.14025659316900
MVL-300                 
1 41464U 16026A   22029.81986905  .00002337  00000+0  75810-4 0  9994
2 41464  97.0698 263.0597 0010240 316.4524 173.5803 15.32880890321708
AIST-2D (RS-48)         
1 41465U 16026B   22029.88423816  .00006725  00000+0  18080-3 0  9999
2 41465  97.0773 271.0257 0008518 280.5028 137.1358 15.38172141322217
IRNSS-1G                
1 41469U 16027A   22029.56021637 -.00000338  00000+0  00000+0 0  9998
2 41469   1.9897 171.1247 0004519 258.7608  30.0993  1.00274196 21139
JCSAT-2B                
1 41471U 16028A   22029.74942234 -.00000169  00000+0  00000+0 0  9999
2 41471   0.0299  84.1694 0001614 226.4670 242.1105  1.00268985 21052
YAOGAN 30               
1 41473U 16029A   22029.52790343  .00013715  00000+0  19771-2 0  9998
2 41473  97.7776  74.0270 0015940 355.2117   4.7353 14.76317038307650
GSAT0211 (GALILEO 14)   
1 41549U 16030A   22028.59348615  .00000045  00000+0  00000+0 0  9995
2 41549  55.8599 265.7407 0004774 350.8343   9.2399  1.70474465 35362
GSAT0210 (GALILEO 13)   
1 41550U 16030B   22028.29960392  .00000045  00000+0  00000+0 0  9996
2 41550  55.8595 265.7502 0003136 331.9158  28.1491  1.70474570 35372
